OBJECT_NAME,OBJECT_ID,EPOCH,MEAN_MOTION,ECCENTRICITY,INCLINATION,RA_OF_ASC_NODE,ARG_OF_PERICENTER,MEAN_ANOMALY,EPHEMERIS_TYPE,CLASSIFICATION_TYPE,NORAD_CAT_ID,ELEMENT_SET_NO,REV_AT_EPOCH,BSTAR,MEAN_MOTION_DOT,MEAN_MOTION_DDOT
SL-16 R/B,1996-051B,2026-07-11T12:50:13.134336,14.12455003,.001752,70.7649,273.1231,302.9169,57.0265,0,U,24298,999,53913,.98637E-4,.133E-5,0
ORBVIEW 2 (SEASTAR),1997-037A,2026-07-11T09:57:00.862848,14.35565701,.0003179,98.8709,0.1077,68.4004,291.7519,0,U,24883,999,52622,.59287E-4,.124E-5,0
SL-16 R/B,1998-043G,2026-07-11T11:58:13.383264,14.26072346,.0010233,98.8378,146.8688,21.7555,338.4058,0,U,25400,999,45663,.17711E-4,-.3E-7,0
SL-16 R/B,1998-045B,2026-07-11T12:48:09.862272,14.16206583,.0008378,71.0117,281.1293,211.8677,148.1941,0,U,25407,999,44463,-.10465E-3,-.255E-5,0
ISS (ZARYA),1998-067A,2026-07-11T07:33:23.712192,15.48978902,.0006688,51.6302,180.6822,282.4935,77.5305,0,U,25544,999,57549,.10843E-3,.5525E-4,0
CZ-4B R/B,1999-025C,2026-07-11T01:03:21.523104,14.18287220,.0036872,98.6473,233.2807,351.8111,20.0744,0,U,25732,999,40565,.20175E-4,-.1E-7,0
OKEAN-O,1999-039A,2026-07-10T14:20:14.694720,14.80494216,.000099,97.9304,250.1251,78.8596,281.2727,0,U,25860,999,45257,.46591E-4,.305E-5,0
SL-16 R/B,1999-039B,2026-07-11T03:18:11.375424,14.81868244,.001402,97.9825,250.9309,212.1406,147.8953,0,U,25861,999,45514,.37311E-4,.241E-5,0
DELTA 2 R/B,1999-041E,2026-07-11T09:10:59.770272,14.12074081,.0501297,51.7614,167.1310,353.4998,5.9590,0,U,25876,999,38050,.24566E-3,.129E-4,0
HELIOS 1B,1999-064A,2026-07-11T04:25:47.617824,14.88069160,.000213,98.1591,98.0170,59.3122,300.8304,0,U,25977,999,70362,.88373E-4,.754E-5,0
TERRA,1999-068A,2026-07-11T11:24:36.669888,14.61121874,.0003264,97.9443,241.0571,130.0650,342.8269,0,U,25994,999,41315,.49631E-4,.2E-5,0
SL-16 R/B,2000-006B,2026-07-11T10:33:04.328352,14.15839011,.0017046,71.0002,197.6297,345.1977,14.8645,0,U,26070,999,36607,-.97424E-4,-.24E-5,0
TITAN 4B R/B,2000-047B,2026-07-11T11:57:20.672352,15.10322367,.004592,67.9872,52.1366,262.4056,97.1876,0,U,26474,999,41160,.91629E-4,.14E-4,0
ENVISAT,2002-009A,2026-07-11T09:30:38.857248,14.39070244,.0001351,98.3846,143.1764,83.9678,82.3974,0,U,27386,999,27696,.216E-4,.24E-6,0
IDEFIX & ARIANE 42P R/B,2002-021B,2026-07-11T06:01:19.011072,14.31092706,.0011656,98.5943,129.4737,177.8783,182.2451,0,U,27422,999,26169,.50962E-4,.91E-6,0
AQUA,2002-022A,2026-07-11T11:51:32.293728,14.62193870,.0000827,98.4293,162.2652,106.8613,6.1893,0,U,27424,999,28682,.92361E-4,.416E-5,0
CZ-4B R/B,2002-024C,2026-07-11T03:21:04.737024,14.14567794,.0050693,98.8688,244.8027,33.4155,345.5308,0,U,27432,999,24669,.21309E-4,-.3E-7,0
MIDORI II (ADEOS-II),2002-056A,2026-07-11T11:57:51.117120,14.29361963,.0001636,98.7892,151.9668,44.8957,315.2357,0,U,27597,999,22798,.62215E-4,.113E-5,0
H-2A R/B,2002-056E,2026-07-11T12:23:34.671264,14.33832631,.0070676,98.3326,148.3058,151.7847,323.4047,0,U,27601,999,23185,.56048E-4,.119E-5,0
CZ-4B R/B,2003-049C,2026-07-11T12:06:53.876736,14.55114570,.0047411,98.6908,192.3205,212.6725,147.1536,0,U,28059,999,20460,.44467E-4,.143E-5,0
CZ-2C R/B,2004-012C,2026-07-11T04:53:22.676352,15.84356462,.0011208,97.7065,270.7549,203.1443,156.9322,0,U,28222,999,22369,.4257E-3,.97493E-3,0
SL-16 R/B,2004-021B,2026-07-11T11:40:08.044608,14.14615789,.0006426,71.0025,332.6917,228.0905,131.9670,0,U,28353,999,14034,.82089E-4,.11E-5,0
CZ-4B R/B,2004-035C,2026-07-11T02:56:33.465120,15.30955869,.0028994,97.3364,224.9297,247.9190,111.8972,0,U,28415,999,19878,.14767E-3,.4393E-4,0
CZ-2C R/B,2004-046B,2026-07-11T04:07:01.843104,14.27032308,.0139913,98.1923,99.4509,149.2302,211.7177,0,U,28480,999,12611,.31987E-4,.46E-6,0
ARIANE 5 R/B,2004-049H,2026-07-10T23:24:37.216800,14.85475885,.0082827,98.2738,5.1503,312.1460,47.2736,0,U,28499,999,16409,.37197E-4,.274E-5,0
CZ-2D R/B,2005-024B,2026-07-11T11:43:22.473120,15.72404715,.0001761,97.3480,213.1777,203.0299,157.0886,0,U,28738,999,15915,.33628E-3,.44642E-3,0
ALOS (DAICHI),2006-002A,2026-07-11T10:59:00.858912,14.70097632,.0000785,98.1336,147.9516,89.5220,270.6076,0,U,28931,999,9166,.10078E-3,.556E-5,0
H-2A R/B,2006-002B,2026-07-11T08:59:16.437120,15.18407590,.0050574,98.2582,350.4005,178.9682,181.1663,0,U,28932,999,11319,.25811E-3,.5406E-4,0
RESURS-DK 1,2006-021A,2026-07-11T11:49:36.650784,15.13311149,.000691,69.9312,276.6321,275.2838,84.7539,0,U,29228,999,10625,.63526E-4,.1025E-4,0
CZ-4B R/B,2006-046C,2026-07-11T09:08:33.393120,15.17962597,.0032208,97.5444,236.9134,195.4718,164.5535,0,U,29507,999,7880,.12426E-3,.2485E-4,0
CZ-2C R/B,2007-010B,2026-07-09T06:01:40.747584,14.20280908,.00579085,98.4114,297.5248,301.3979,58.1542,0,U,31114,999,99697,.3951846E-4,.44E-6,0
