SL-16 R/B               
1 24298U 96051B   26192.53487424  .00000133  00000+0  98637-4 0  9996
2 24298  70.7649 273.1231 0017520 302.9169  57.0265 14.12455003539135
ORBVIEW 2 (SEASTAR)     
1 24883U 97037A   26192.41459332  .00000124  00000+0  59287-4 0  9993
2 24883  98.8709   0.1077 0003179  68.4004 291.7519 14.35565701526223
SL-16 R/B               
1 25400U 98043G   26192.49876601 -.00000003  00000+0  17711-4 0  9990
2 25400  98.8378 146.8688 0010233  21.7555 338.4058 14.26072346456631
SL-16 R/B               
1 25407U 98045B   26192.53344748 -.00000255  00000+0 -10465-3 0  9994
2 25407  71.0117 281.1293 0008378 211.8677 148.1941 14.16206583444636
ISS (ZARYA)             
1 25544U 98067A   26192.31485778  .00005525  00000+0  10843-3 0  9998
2 25544  51.6302 180.6822 0006688 282.4935  77.5305 15.48978902575497
CZ-4B R/B               
1 25732U 99025C   26192.04399911 -.00000001  00000+0  20175-4 0  9990
2 25732  98.6473 233.2807 0036872 351.8111  20.0744 14.18287220405651
OKEAN-O                 
1 25860U 99039A   26191.59739230  .00000305  00000+0  46591-4 0  9994
2 25860  97.9304 250.1251 0000990  78.8596 281.2727 14.80494216452573
SL-16 R/B               
1 25861U 99039B   26192.13763166  .00000241  00000+0  37311-4 0  9990
2 25861  97.9825 250.9309 0014020 212.1406 147.8953 14.81868244455147
DELTA 2 R/B             
1 25876U 99041E   26192.38263623  .00001290  00000+0  24566-3 0  9991
2 25876  51.7614 167.1310 0501297 353.4998   5.9590 14.12074081380500
HELIOS 1B               
1 25977U 99064A   26192.18457891  .00000754  00000+0  88373-4 0  9999
2 25977  98.1591  98.0170 0002130  59.3122 300.8304 14.88069160703627
TERRA                   
1 25994U 99068A   26192.47542442  .00000200  00000+0  49631-4 0  9991
2 25994  97.9443 241.0571 0003264 130.0650 342.8269 14.61121874413150
SL-16 R/B               
1 26070U 00006B   26192.43963343 -.00000240  00000+0 -97424-4 0  9993
2 26070  71.0002 197.6297 0017046 345.1977  14.8645 14.15839011366075
TITAN 4B R/B            
1 26474U 00047B   26192.49815593  .00001400  00000+0  91629-4 0  9993
2 26474  67.9872  52.1366 0045920 262.4056  97.1876 15.10322367411602
ENVISAT                 
1 27386U 02009A   26192.39628307  .00000024  00000+0  21600-4 0  9993
2 27386  98.3846 143.1764 0001351  83.9678  82.3974 14.39070244276960
IDEFIX & ARIANE 42P R/B 
1 27422U 02021B   26192.25091448  .00000091  00000+0  50962-4 0  9990
2 27422  98.5943 129.4737 0011656 177.8783 182.2451 14.31092706261690
AQUA                    
1 27424U 02022A   26192.49412377  .00000416  00000+0  92361-4 0  9997
2 27424  98.4293 162.2652 0000827 106.8613   6.1893 14.62193870286826
CZ-4B R/B               
1 27432U 02024C   26192.13963816 -.00000003  00000+0  21309-4 0  9995
2 27432  98.8688 244.8027 0050693  33.4155 345.5308 14.14567794246691
MIDORI II (ADEOS-II)    
1 27597U 02056A   26192.49850830  .00000113  00000+0  62215-4 0  9994
2 27597  98.7892 151.9668 0001636  44.8957 315.2357 14.29361963227982
H-2A R/B                
1 27601U 02056E   26192.51637351  .00000119  00000+0  56048-4 0  9997
2 27601  98.3326 148.3058 0070676 151.7847 323.4047 14.33832631231853
CZ-4B R/B               
1 28059U 03049C   26192.50479024  .00000143  00000+0  44467-4 0  9997
2 28059  98.6908 192.3205 0047411 212.6725 147.1536 14.55114570204602
CZ-2C R/B               
1 28222U 04012C   26192.20373468  .00097493  00000+0  42570-3 0  9998
2 28222  97.7065 270.7549 0011208 203.1443 156.9322 15.84356462223699
SL-16 R/B               
1 28353U 04021B   26192.48620422  .00000110  00000+0  82089-4 0  9998
2 28353  71.0025 332.6917 0006426 228.0905 131.9670 14.14615789140348
CZ-4B R/B               
1 28415U 04035C   26192.12260955  .00004393  00000+0  14767-3 0  9998
2 28415  97.3364 224.9297 0028994 247.9190 111.8972 15.30955869198786
CZ-2C R/B               
1 28480U 04046B   26192.17154911  .00000046  00000+0  31987-4 0  9996
2 28480  98.1923  99.4509 0139913 149.2302 211.7177 14.27032308126116
ARIANE 5 R/B            
1 28499U 04049H   26191.97543075  .00000274  00000+0  37197-4 0  9991
2 28499  98.2738   5.1503 0082827 312.1460  47.2736 14.85475885164093
CZ-2D R/B               
1 28738U 05024B   26192.48845455  .00044642  00000+0  33628-3 0  9996
2 28738  97.3480 213.1777 0001761 203.0299 157.0886 15.72404715159151
ALOS (DAICHI)           
1 28931U 06002A   26192.45764883  .00000556  00000+0  10078-3 0  9990
2 28931  98.1336 147.9516 0000785  89.5220 270.6076 14.70097632 91663
H-2A R/B                
1 28932U 06002B   26192.37449580  .00005406  00000+0  25811-3 0  9996
2 28932  98.2582 350.4005 0050574 178.9682 181.1663 15.18407590113190
RESURS-DK 1             
1 29228U 06021A   26192.49278531  .00001025  00000+0  63526-4 0  9994
2 29228  69.9312 276.6321 0006910 275.2838  84.7539 15.13311149106252
CZ-4B R/B               
1 29507U 06046C   26192.38094205  .00002485  00000+0  12426-3 0  9996
2 29507  97.5444 236.9134 0032208 195.4718 164.5535 15.17962597 78800
CZ-2C R/B               
1 31114U 07010B   26190.25116606  .00000044  00000+0  39518-4 0  9990
2 31114  98.4114 297.5248 0057908 301.3979  58.1542 14.20280908996976
